[{"OBJECT_NAME":"STARLINK-3333","OBJECT_ID":"2022-001C","EPOCH":"2026-03-09T22:48:18.143136","MEAN_MOTION":15.0885751,"ECCENTRICITY":0.00014366,"INCLINATION":53.2186,"RA_OF_ASC_NODE":157.9555,"ARG_OF_PERICENTER":99.8496,"MEAN_ANOMALY":260.2658,"EPHEMERIS_TYPE":0,"CLASSIFICATION_TYPE":"U","NORAD_CAT_ID":50805,"ELEMENT_SET_NO":999,"REV_AT_EPOCH":23058,"BSTAR":-0.00034958927,"MEAN_MOTION_DOT":-5.85e-5,"MEAN_MOTION_DDOT":0},{"OBJECT_NAME":"CZ-4B DEB","OBJECT_ID":"2004-035K","EPOCH":"2026-03-08T06:51:30.377664","MEAN_MOTION":15.09293825,"ECCENTRICITY":0.00031468,"INCLINATION":97.5843,"RA_OF_ASC_NODE":91.2716,"ARG_OF_PERICENTER":107.6302,"MEAN_ANOMALY":252.527,"EPHEMERIS_TYPE":0,"CLASSIFICATION_TYPE":"U","NORAD_CAT_ID":29043,"ELEMENT_SET_NO":999,"REV_AT_EPOCH":10418,"BSTAR":0.00031897975,"MEAN_MOTION_DOT":5.021e-5,"MEAN_MOTION_DDOT":0}]
